OBJECT_NAME,OBJECT_ID,EPOCH,MEAN_MOTION,ECCENTRICITY,INCLINATION,RA_OF_ASC_NODE,ARG_OF_PERICENTER,MEAN_ANOMALY,EPHEMERIS_TYPE,CLASSIFICATION_TYPE,NORAD_CAT_ID,ELEMENT_SET_NO,REV_AT_EPOCH,BSTAR,MEAN_MOTION_DOT,MEAN_MOTION_DDOT
TOMORROW-S2,2024-149T,2026-07-15T18:10:57.631008,15.33146017,.0003875,97.3815,277.6627,147.7952,212.3527,0,U,60485,999,10646,.14069E-3,.4426E-4,0
FLOCK 4BE-36,2024-149U,2026-07-15T18:41:20.287392,15.43554781,.0004791,97.3744,281.5656,151.4812,208.6698,0,U,60486,999,10676,.25316E-3,.11285E-3,0
FLOCK 4BE-25,2024-149V,2026-07-15T18:10:57.491904,15.39556376,.0003586,97.3797,280.1150,140.9347,219.2158,0,U,60487,999,10663,.23266E-3,.9067E-4,0
FLOCK 4BE-31,2024-149W,2026-07-15T18:45:56.801088,15.45174995,.0003804,97.3798,282.5137,150.1201,210.0266,0,U,60488,999,10679,.30174E-3,.14231E-3,0
FLOCK 4BE-20,2024-149X,2026-07-15T05:09:17.633088,15.38813036,.00050367,97.3694,278.3768,154.2664,205.8833,0,U,60489,999,10652,.23350148E-3,.8882E-4,0
FLOCK 4BE-23,2024-149Y,2026-07-15T19:09:15.160032,15.38375662,.0004706,97.3779,279.3539,154.7187,205.4289,0,U,60490,999,10659,.23157E-3,.8682E-4,0
FLOCK 4BE-17,2024-149AA,2026-07-15T19:22:16.915008,15.40581932,.0004455,97.3772,280.4168,144.9752,215.1788,0,U,60492,999,10666,.23614E-3,.9522E-4,0
NUSAT-50 (NANCY ROMAN),2024-149AB,2026-07-15T17:55:46.756416,15.30324545,.0004846,97.3783,277.8114,100.1196,260.0592,0,U,60493,999,10649,.17214E-3,.4973E-4,0
FLOCK 4BE-22,2024-149AC,2026-07-15T16:44:53.729376,15.41997719,.0004725,97.3734,280.5443,152.6875,207.4621,0,U,60494,999,10669,.25864E-3,.10943E-3,0
FLOCK 4BE-34,2024-149AD,2026-07-15T04:42:36.766368,15.41951345,.00049457,97.3783,280.8775,161.2158,198.9273,0,U,60495,999,10664,.23025621E-3,.9716E-4,0
TYCHE,2024-149AE,2026-07-15T19:01:48.777024,15.25833336,.000318,97.3750,274.2238,163.3339,196.8005,0,U,60496,999,10626,.97374E-4,.2419E-4,0
FLOCK 4BE-32,2024-149AF,2026-07-15T19:03:16.761600,15.43099997,.0004978,97.3720,281.0480,157.0753,203.0718,0,U,60497,999,10674,.27354E-3,.12016E-3,0
NUSAT-48 (HENRIETTA LEAVITT),2024-149AG,2026-07-15T17:39:59.090112,15.30281080,.0004826,97.3919,278.0938,157.1655,202.9801,0,U,60498,999,10650,.18048E-3,.5211E-4,0
NUSAT-49 (KLARA DAN VON NEUMANN),2024-149AJ,2026-07-15T04:32:49.467552,15.29782935,.00026888,97.3783,277.2885,166.4969,193.6344,0,U,60500,999,10641,.91263762E-4,.2557E-4,0
FLOCK 4BE-11,2024-149AK,2026-07-15T18:34:04.124640,15.43891147,.0004922,97.3698,281.2850,156.7931,203.3540,0,U,60501,999,10676,.2672E-3,.12053E-3,0
YAM-7,2024-149AN,2026-07-15T17:32:38.048352,15.32186907,.0003673,97.3780,276.8703,166.5525,193.5815,0,U,60504,999,10642,.13933E-3,.4252E-4,0
FLOCK 4BE-24,2024-149AP,2026-07-15T18:10:27.790176,15.44115037,.0005091,97.3716,281.5368,168.5344,191.6021,0,U,60505,999,10677,.2678E-3,.12173E-3,0
LUR-1,2024-149AQ,2026-07-15T18:04:58.078272,15.30450656,.0004013,97.3738,275.3796,181.8274,178.2953,0,U,60506,999,10634,.12897E-3,.3721E-4,0
TANAGER-1,2024-149AR,2026-07-15T05:07:58.411200,15.43902804,.0001553,97.2324,290.3469,136.7209,223.4162,0,U,60507,999,10736,.60546E-5,.191E-5,0
EAGLEEYE,2024-149AS,2026-07-15T18:46:17.645952,15.76877510,.0004953,97.3713,291.8241,183.2173,176.9061,0,U,60508,999,10743,.60577E-3,.98306E-3,0
FLOCK 4BE-29,2024-149AT,2026-07-15T17:56:42.124992,15.45510334,.0003652,97.3811,283.0723,175.6538,184.4743,0,U,60509,999,10682,.61485E-3,.29483E-3,0
TRANSPORTER-11 OBJECT AU,2024-149AU,2026-07-15T16:50:11.160384,15.40984020,.0004257,97.3729,280.6642,166.5416,193.5945,0,U,60510,999,10670,.23048E-3,.9416E-4,0
FLOCK 4BE-2,2024-149AV,2026-07-15T18:31:38.559648,15.55950565,.0005334,97.3832,284.9505,172.0208,188.1132,0,U,60511,999,10694,.662E-3,.46071E-3,0
FLOCK 4BE-13,2024-149AW,2026-07-15T16:53:41.382816,15.42626510,.0005138,97.3721,281.4254,154.4018,205.7485,0,U,60512,999,10676,.21357E-3,.9212E-4,0
FLOCK 4BE-27,2024-149AX,2026-07-15T18:04:05.818368,15.34924575,.0004092,97.3827,278.6254,180.4022,179.7219,0,U,60513,999,10652,.17429E-3,.5823E-4,0
FLOCK 4BE-9,2024-149AY,2026-07-15T18:53:54.580128,15.41617186,.0003751,97.3792,281.3519,168.9855,191.1475,0,U,60514,999,10672,.30026E-3,.12558E-3,0
FLOCK 4BE-6,2024-149BA,2026-07-15T18:35:13.247232,15.40327147,.0004419,97.3789,280.6416,171.2292,188.9032,0,U,60516,999,10667,.23215E-3,.9281E-4,0
FLOCK 4BE-14,2024-149BB,2026-07-15T19:05:48.638112,15.41868142,.0005453,97.3694,280.8270,174.8160,185.3145,0,U,60517,999,10673,.26771E-3,.11283E-3,0
