TOMORROW-S2             
1 60485U 24149T   26196.75761147  .00004426  00000+0  14069-3 0  9993
2 60485  97.3815 277.6627 0003875 147.7952 212.3527 15.33146017106463
FLOCK 4BE-36            
1 60486U 24149U   26196.77870703  .00011285  00000+0  25316-3 0  9993
2 60486  97.3744 281.5656 0004791 151.4812 208.6698 15.43554781106768
FLOCK 4BE-25            
1 60487U 24149V   26196.75760986  .00009067  00000+0  23266-3 0  9990
2 60487  97.3797 280.1150 0003586 140.9347 219.2158 15.39556376106630
FLOCK 4BE-31            
1 60488U 24149W   26196.78190742  .00014231  00000+0  30174-3 0  9996
2 60488  97.3798 282.5137 0003804 150.1201 210.0266 15.45174995106794
FLOCK 4BE-20            
1 60489U 24149X   26196.21478742  .00008882  00000+0  23350-3 0  9997
2 60489  97.3694 278.3768 0005036 154.2664 205.8833 15.38813036106521
FLOCK 4BE-23            
1 60490U 24149Y   26196.79809213  .00008682  00000+0  23157-3 0  9996
2 60490  97.3779 279.3539 0004706 154.7187 205.4289 15.38375662106598
FLOCK 4BE-17            
1 60492U 24149AA  26196.80714022  .00009522  00000+0  23614-3 0  9995
2 60492  97.3772 280.4168 0004455 144.9752 215.1788 15.40581932106666
NUSAT-50 (NANCY ROMAN)  
1 60493U 24149AB  26196.74706894  .00004973  00000+0  17214-3 0  9991
2 60493  97.3783 277.8114 0004846 100.1196 260.0592 15.30324545106497
FLOCK 4BE-22            
1 60494U 24149AC  26196.69784409  .00010943  00000+0  25864-3 0  9998
2 60494  97.3734 280.5443 0004725 152.6875 207.4621 15.41997719106693
FLOCK 4BE-34            
1 60495U 24149AD  26196.19625887  .00009716  00000+0  23026-3 0  9992
2 60495  97.3783 280.8775 0004945 161.2158 198.9273 15.41951345106640
TYCHE                   
1 60496U 24149AE  26196.79292566  .00002419  00000+0  97374-4 0  9994
2 60496  97.3750 274.2238 0003180 163.3339 196.8005 15.25833336106269
FLOCK 4BE-32            
1 60497U 24149AF  26196.79394400  .00012016  00000+0  27354-3 0  9999
2 60497  97.3720 281.0480 0004978 157.0753 203.0718 15.43099997106740
NUSAT-48 (HENRIETTA LE*)
1 60498U 24149AG  26196.73610058  .00005211  00000+0  18048-3 0  9993
2 60498  97.3919 278.0938 0004826 157.1655 202.9801 15.30281080106506
NUSAT-49 (KLARA DAN VO*)
1 60500U 24149AJ  26196.18946143  .00002557  00000+0  91264-4 0  9995
2 60500  97.3783 277.2885 0002688 166.4969 193.6344 15.29782935106417
FLOCK 4BE-11            
1 60501U 24149AK  26196.77365885  .00012053  00000+0  26720-3 0  9995
2 60501  97.3698 281.2850 0004922 156.7931 203.3540 15.43891147106761
YAM-7                   
1 60504U 24149AN  26196.73099593  .00004252  00000+0  13933-3 0  9998
2 60504  97.3780 276.8703 0003673 166.5525 193.5815 15.32186907106420
FLOCK 4BE-24            
1 60505U 24149AP  26196.75726609  .00012173  00000+0  26780-3 0  9991
2 60505  97.3716 281.5368 0005091 168.5344 191.6021 15.44115037106772
LUR-1                   
1 60506U 24149AQ  26196.75344998  .00003721  00000+0  12897-3 0  9992
2 60506  97.3738 275.3796 0004013 181.8274 178.2953 15.30450656106348
TANAGER-1               
1 60507U 24149AR  26196.21387050  .00000191  00000+0  60546-5 0  9994
2 60507  97.2324 290.3469 0001553 136.7209 223.4162 15.43902804107365
EAGLEEYE                
1 60508U 24149AS  26196.78214868  .00098306  00000+0  60577-3 0  9990
2 60508  97.3713 291.8241 0004953 183.2173 176.9061 15.76877510107436
FLOCK 4BE-29            
1 60509U 24149AT  26196.74770978  .00029483  00000+0  61485-3 0  9995
2 60509  97.3811 283.0723 0003652 175.6538 184.4743 15.45510334106826
TRANSPORTER-11 OBJECT AU
1 60510U 24149AU  26196.70151806  .00009416  00000+0  23048-3 0  9993
2 60510  97.3729 280.6642 0004257 166.5416 193.5945 15.40984020106709
FLOCK 4BE-2             
1 60511U 24149AV  26196.77197407  .00046071  00000+0  66200-3 0  9993
2 60511  97.3832 284.9505 0005334 172.0208 188.1132 15.55950565106945
FLOCK 4BE-13            
1 60512U 24149AW  26196.70395119  .00009212  00000+0  21357-3 0  9997
2 60512  97.3721 281.4254 0005138 154.4018 205.7485 15.42626510106764
FLOCK 4BE-27            
1 60513U 24149AX  26196.75284512  .00005823  00000+0  17429-3 0  9996
2 60513  97.3827 278.6254 0004092 180.4022 179.7219 15.34924575106524
FLOCK 4BE-9             
1 60514U 24149AY  26196.78743727  .00012558  00000+0  30026-3 0  9999
2 60514  97.3792 281.3519 0003751 168.9855 191.1475 15.41617186106726
FLOCK 4BE-6             
1 60516U 24149BA  26196.77445888  .00009281  00000+0  23215-3 0  9998
2 60516  97.3789 280.6416 0004419 171.2292 188.9032 15.40327147106677
FLOCK 4BE-14            
1 60517U 24149BB  26196.79570183  .00011283  00000+0  26771-3 0  9993
2 60517  97.3694 280.8270 0005453 174.8160 185.3145 15.41868142106734
